IRIDE FM7               
1 66701U 25276AM  26068.75283777  .00010516  00000+0  50729-3 0  9998
2 66701  97.4286 144.0153 0003982  10.7537 349.3782 15.18866259 15329
FLOCK 4H-21             
1 66724U 25276BL  26068.75564709  .00007650  00000+0  36207-3 0  9990
2 66724  97.4250 144.1168 0001053 302.6819  57.4314 15.19629565 14588
