[{"OBJECT_NAME":"IRIDE FM7","OBJECT_ID":"2025-276AM","EPOCH":"2026-03-09T18:04:05.183328","MEAN_MOTION":15.18866259,"ECCENTRICITY":0.0003982,"INCLINATION":97.4286,"RA_OF_ASC_NODE":144.0153,"ARG_OF_PERICENTER":10.7537,"MEAN_ANOMALY":349.3782,"EPHEMERIS_TYPE":0,"CLASSIFICATION_TYPE":"U","NORAD_CAT_ID":66701,"ELEMENT_SET_NO":999,"REV_AT_EPOCH":1532,"BSTAR":0.00050729395,"MEAN_MOTION_DOT":0.00010516,"MEAN_MOTION_DDOT":0},{"OBJECT_NAME":"FLOCK 4H-21","OBJECT_ID":"2025-276BL","EPOCH":"2026-03-09T18:08:07.908576","MEAN_MOTION":15.19629565,"ECCENTRICITY":0.00010528,"INCLINATION":97.425,"RA_OF_ASC_NODE":144.1168,"ARG_OF_PERICENTER":302.6819,"MEAN_ANOMALY":57.4314,"EPHEMERIS_TYPE":0,"CLASSIFICATION_TYPE":"U","NORAD_CAT_ID":66724,"ELEMENT_SET_NO":999,"REV_AT_EPOCH":1458,"BSTAR":0.00036207016,"MEAN_MOTION_DOT":7.65e-5,"MEAN_MOTION_DDOT":0}]
